CCSDS_OMM_VERS = 2.0
CREATION_DATE  = 
ORIGINATOR     = 

OBJECT_NAME    = SL-3 R/B
OBJECT_ID      = 1982-079B
CENTER_NAME    = EARTH
REF_FRAME      = TEME
TIME_SYSTEM    = UTC
MEAN_ELEMENT_THEORY = SGP/SGP4

EPOCH          = 2026-03-08T14:48:21.168288
MEAN_MOTION    = 15.24782909
ECCENTRICITY   = .00250472
INCLINATION    = 81.1483
RA_OF_ASC_NODE = 194.3434
ARG_OF_PERICENTER = 168.3785
MEAN_ANOMALY   = 191.8032

EPHEMERIS_TYPE = 0
CLASSIFICATION_TYPE = U
NORAD_CAT_ID   = 13403
ELEMENT_SET_NO = 999
REV_AT_EPOCH   = 37753
BSTAR          = .41147498E-3
MEAN_MOTION_DOT = .1032E-3
MEAN_MOTION_DDOT = 0

CCSDS_OMM_VERS = 2.0
CREATION_DATE  = 
ORIGINATOR     = 

OBJECT_NAME    = SL-14 R/B
OBJECT_ID      = 1982-092B
CENTER_NAME    = EARTH
REF_FRAME      = TEME
TIME_SYSTEM    = UTC
MEAN_ELEMENT_THEORY = SGP/SGP4

EPOCH          = 2026-03-08T15:27:59.960736
MEAN_MOTION    = 14.86665515
ECCENTRICITY   = .00190497
INCLINATION    = 82.5698
RA_OF_ASC_NODE = 142.3772
ARG_OF_PERICENTER = 307.2753
MEAN_ANOMALY   = 170.0379

EPHEMERIS_TYPE = 0
CLASSIFICATION_TYPE = U
NORAD_CAT_ID   = 13553
ELEMENT_SET_NO = 999
REV_AT_EPOCH   = 32877
BSTAR          = .71316482E-4
MEAN_MOTION_DOT = .659E-5
MEAN_MOTION_DDOT = 0

CCSDS_OMM_VERS = 2.0
CREATION_DATE  = 
ORIGINATOR     = 

OBJECT_NAME    = SL-3 R/B
OBJECT_ID      = 1983-010B
CENTER_NAME    = EARTH
REF_FRAME      = TEME
TIME_SYSTEM    = UTC
MEAN_ELEMENT_THEORY = SGP/SGP4

EPOCH          = 2026-03-08T12:45:21.805632
MEAN_MOTION    = 15.46309033
ECCENTRICITY   = .00180985
INCLINATION    = 81.1064
RA_OF_ASC_NODE = 3.6671
ARG_OF_PERICENTER = 54.9008
MEAN_ANOMALY   = 305.3931

EPHEMERIS_TYPE = 0
CLASSIFICATION_TYPE = U
NORAD_CAT_ID   = 13819
ELEMENT_SET_NO = 999
REV_AT_EPOCH   = 35776
BSTAR          = .46739489E-3
MEAN_MOTION_DOT = .23248E-3
MEAN_MOTION_DDOT = 0

CCSDS_OMM_VERS = 2.0
CREATION_DATE  = 
ORIGINATOR     = 

OBJECT_NAME    = SL-3 R/B
OBJECT_ID      = 1983-075B
CENTER_NAME    = EARTH
REF_FRAME      = TEME
TIME_SYSTEM    = UTC
MEAN_ELEMENT_THEORY = SGP/SGP4

EPOCH          = 2026-03-08T13:57:08.210592
MEAN_MOTION    = 15.38387344
ECCENTRICITY   = .00200219
INCLINATION    = 97.6145
RA_OF_ASC_NODE = 72.1165
ARG_OF_PERICENTER = 230.1673
MEAN_ANOMALY   = 129.7811

EPHEMERIS_TYPE = 0
CLASSIFICATION_TYPE = U
NORAD_CAT_ID   = 14208
ELEMENT_SET_NO = 999
REV_AT_EPOCH   = 32998
BSTAR          = .41556292E-3
MEAN_MOTION_DOT = .15762E-3
MEAN_MOTION_DDOT = 0

CCSDS_OMM_VERS = 2.0
CREATION_DATE  = 
ORIGINATOR     = 

OBJECT_NAME    = COSMOS 1536
OBJECT_ID      = 1984-013A
CENTER_NAME    = EARTH
REF_FRAME      = TEME
TIME_SYSTEM    = UTC
MEAN_ELEMENT_THEORY = SGP/SGP4

EPOCH          = 2026-03-08T14:29:09.798432
MEAN_MOTION    = 15.23809497
ECCENTRICITY   = .00125177
INCLINATION    = 82.5426
RA_OF_ASC_NODE = 108.9299
ARG_OF_PERICENTER = 287.8222
MEAN_ANOMALY   = 72.1649

EPHEMERIS_TYPE = 0
CLASSIFICATION_TYPE = U
NORAD_CAT_ID   = 14699
ELEMENT_SET_NO = 999
REV_AT_EPOCH   = 27245
BSTAR          = .36988679E-3
MEAN_MOTION_DOT = .8958E-4
MEAN_MOTION_DDOT = 0

CCSDS_OMM_VERS = 2.0
CREATION_DATE  = 
ORIGINATOR     = 

OBJECT_NAME    = SL-14 R/B
OBJECT_ID      = 1984-027B
CENTER_NAME    = EARTH
REF_FRAME      = TEME
TIME_SYSTEM    = UTC
MEAN_ELEMENT_THEORY = SGP/SGP4

EPOCH          = 2026-03-08T13:09:42.609312
MEAN_MOTION    = 14.85975346
ECCENTRICITY   = .00174306
INCLINATION    = 82.5385
RA_OF_ASC_NODE = 246.0833
ARG_OF_PERICENTER = 341.7563
MEAN_ANOMALY   = 18.3026

EPHEMERIS_TYPE = 0
CLASSIFICATION_TYPE = U
NORAD_CAT_ID   = 14820
ELEMENT_SET_NO = 999
REV_AT_EPOCH   = 24746
BSTAR          = .77799076E-4
MEAN_MOTION_DOT = .705E-5
MEAN_MOTION_DDOT = 0

CCSDS_OMM_VERS = 2.0
CREATION_DATE  = 
ORIGINATOR     = 

OBJECT_NAME    = SL-8 R/B
OBJECT_ID      = 1985-006B
CENTER_NAME    = EARTH
REF_FRAME      = TEME
TIME_SYSTEM    = UTC
MEAN_ELEMENT_THEORY = SGP/SGP4

EPOCH          = 2026-03-08T14:45:25.283808
MEAN_MOTION    = 14.37781864
ECCENTRICITY   = .00184783
INCLINATION    = 74.0432
RA_OF_ASC_NODE = 263.1264
ARG_OF_PERICENTER = 181.2024
MEAN_ANOMALY   = 243.0330

EPHEMERIS_TYPE = 0
CLASSIFICATION_TYPE = U
NORAD_CAT_ID   = 15483
ELEMENT_SET_NO = 999
REV_AT_EPOCH   = 15387
BSTAR          = .11885501E-3
MEAN_MOTION_DOT = .332E-5
MEAN_MOTION_DDOT = 0

CCSDS_OMM_VERS = 2.0
CREATION_DATE  = 
ORIGINATOR     = 

OBJECT_NAME    = SL-12 R/B(2)
OBJECT_ID      = 1985-042D
CENTER_NAME    = EARTH
REF_FRAME      = TEME
TIME_SYSTEM    = UTC
MEAN_ELEMENT_THEORY = SGP/SGP4

EPOCH          = 2026-03-08T12:25:41.163456
MEAN_MOTION    = 14.21982138
ECCENTRICITY   = .00333218
INCLINATION    = 71.1063
RA_OF_ASC_NODE = 90.2049
ARG_OF_PERICENTER = 130.0929
MEAN_ANOMALY   = 31.0224

EPHEMERIS_TYPE = 0
CLASSIFICATION_TYPE = U
NORAD_CAT_ID   = 15772
ELEMENT_SET_NO = 999
REV_AT_EPOCH   = 11422
BSTAR          = .38013037E-4
MEAN_MOTION_DOT = .37E-6
MEAN_MOTION_DDOT = 0

CCSDS_OMM_VERS = 2.0
CREATION_DATE  = 
ORIGINATOR     = 

OBJECT_NAME    = SL-14 R/B
OBJECT_ID      = 1985-069B
CENTER_NAME    = EARTH
REF_FRAME      = TEME
TIME_SYSTEM    = UTC
MEAN_ELEMENT_THEORY = SGP/SGP4

EPOCH          = 2026-03-08T14:25:14.015424
MEAN_MOTION    = 14.86431870
ECCENTRICITY   = .00183679
INCLINATION    = 82.5284
RA_OF_ASC_NODE = 25.9565
ARG_OF_PERICENTER = 191.3307
MEAN_ANOMALY   = 168.7499

EPHEMERIS_TYPE = 0
CLASSIFICATION_TYPE = U
NORAD_CAT_ID   = 15945
ELEMENT_SET_NO = 999
REV_AT_EPOCH   = 17267
BSTAR          = .85240772E-4
MEAN_MOTION_DOT = .779E-5
MEAN_MOTION_DDOT = 0

CCSDS_OMM_VERS = 2.0
CREATION_DATE  = 
ORIGINATOR     = 

OBJECT_NAME    = SL-16 R/B
OBJECT_ID      = 1985-097B
CENTER_NAME    = EARTH
REF_FRAME      = TEME
TIME_SYSTEM    = UTC
MEAN_ELEMENT_THEORY = SGP/SGP4

EPOCH          = 2026-03-08T15:57:18.676800
MEAN_MOTION    = 14.16599115
ECCENTRICITY   = .00099355
INCLINATION    = 71.0031
RA_OF_ASC_NODE = 142.7122
ARG_OF_PERICENTER = 260.9745
MEAN_ANOMALY   = 261.2623

EPHEMERIS_TYPE = 0
CLASSIFICATION_TYPE = U
NORAD_CAT_ID   = 16182
ELEMENT_SET_NO = 999
REV_AT_EPOCH   = 8708
BSTAR          = -.66859859E-4
MEAN_MOTION_DOT = -.181E-5
MEAN_MOTION_DDOT = 0

CCSDS_OMM_VERS = 2.0
CREATION_DATE  = 
ORIGINATOR     = 

OBJECT_NAME    = SL-14 R/B
OBJECT_ID      = 1986-006B
CENTER_NAME    = EARTH
REF_FRAME      = TEME
TIME_SYSTEM    = UTC
MEAN_ELEMENT_THEORY = SGP/SGP4

EPOCH          = 2026-03-08T13:52:36.541344
MEAN_MOTION    = 14.86813479
ECCENTRICITY   = .00750606
INCLINATION    = 82.5233
RA_OF_ASC_NODE = 260.7836
ARG_OF_PERICENTER = 276.5601
MEAN_ANOMALY   = 82.7075

EPHEMERIS_TYPE = 0
CLASSIFICATION_TYPE = U
NORAD_CAT_ID   = 16496
ELEMENT_SET_NO = 999
REV_AT_EPOCH   = 14904
BSTAR          = .90059029E-4
MEAN_MOTION_DOT = .87E-5
MEAN_MOTION_DDOT = 0

CCSDS_OMM_VERS = 2.0
CREATION_DATE  = 
ORIGINATOR     = 

OBJECT_NAME    = COSMOS 1743
OBJECT_ID      = 1986-034A
CENTER_NAME    = EARTH
REF_FRAME      = TEME
TIME_SYSTEM    = UTC
MEAN_ELEMENT_THEORY = SGP/SGP4

EPOCH          = 2026-03-08T11:40:20.208864
MEAN_MOTION    = 15.58458340
ECCENTRICITY   = .00017254
INCLINATION    = 82.5297
RA_OF_ASC_NODE = 75.0937
ARG_OF_PERICENTER = 305.0010
MEAN_ANOMALY   = 55.1084

EPHEMERIS_TYPE = 0
CLASSIFICATION_TYPE = U
NORAD_CAT_ID   = 16719
ELEMENT_SET_NO = 999
REV_AT_EPOCH   = 18006
BSTAR          = .55825552E-3
MEAN_MOTION_DOT = .42711E-3
MEAN_MOTION_DDOT = 0

